[{"OBJECT_NAME":"KUIPER-00221","OBJECT_ID":"2025-301Q","EPOCH":"2026-03-09T09:45:11.787552","MEAN_MOTION":14.79940595,"ECCENTRICITY":8.245e-5,"INCLINATION":51.9015,"RA_OF_ASC_NODE":81.8575,"ARG_OF_PERICENTER":69.4274,"MEAN_ANOMALY":290.6777,"EPHEMERIS_TYPE":0,"CLASSIFICATION_TYPE":"U","NORAD_CAT_ID":67147,"ELEMENT_SET_NO":999,"REV_AT_EPOCH":1348,"BSTAR":0.00058160032,"MEAN_MOTION_DOT":4.216e-5,"MEAN_MOTION_DDOT":0},{"OBJECT_NAME":"SCOUT B-1 DEB","OBJECT_ID":"1972-069D","EPOCH":"2026-03-09T05:43:16.204800","MEAN_MOTION":14.73828112,"ECCENTRICITY":0.00377293,"INCLINATION":90.4698,"RA_OF_ASC_NODE":343.4643,"ARG_OF_PERICENTER":174.6658,"MEAN_ANOMALY":185.4972,"EPHEMERIS_TYPE":0,"CLASSIFICATION_TYPE":"U","NORAD_CAT_ID":6284,"ELEMENT_SET_NO":999,"REV_AT_EPOCH":73362,"BSTAR":0.00046765709,"MEAN_MOTION_DOT":3.107e-5,"MEAN_MOTION_DDOT":0}]
